<?xml version="1.0" encoding="UTF-8"?>
<ndm xmlns:xsi="http://www.w3.org/2001/XMLSchema-instance" xsi:noNamespaceSchemaLocation="https://sanaregistry.org/r/ndmxml_unqualified/ndmxml-2.0.0-master-2.0.xsd">
<omm id="CCSDS_OMM_VERS" version="2.0">
<header><CREATION_DATE/><ORIGINATOR/></header><body><segment><metadata><OBJECT_NAME>GLOBALSTAR M075</OBJECT_NAME><OBJECT_ID>2010-054E</OBJECT_ID><CENTER_NAME>EARTH</CENTER_NAME><REF_FRAME>TEME</REF_FRAME><TIME_SYSTEM>UTC</TIME_SYSTEM><MEAN_ELEMENT_THEORY>SGP4</MEAN_ELEMENT_THEORY></metadata><data><meanElements><EPOCH>2024-08-22T15:06:41.061024</EPOCH><MEAN_MOTION>12.62263190</MEAN_MOTION><ECCENTRICITY>.00007</ECCENTRICITY><INCLINATION>51.9972</INCLINATION><RA_OF_ASC_NODE>10.5797</RA_OF_ASC_NODE><ARG_OF_PERICENTER>93.9974</ARG_OF_PERICENTER><MEAN_ANOMALY>279.4133</MEAN_ANOMALY></meanElements><tleParameters><EPHEMERIS_TYPE>0</EPHEMERIS_TYPE><CLASSIFICATION_TYPE>U</CLASSIFICATION_TYPE><NORAD_CAT_ID>37192</NORAD_CAT_ID><ELEMENT_SET_NO>999</ELEMENT_SET_NO><REV_AT_EPOCH>63867</REV_AT_EPOCH><BSTAR>.1259E-3</BSTAR><MEAN_MOTION_DOT>-.81E-6</MEAN_MOTION_DOT><MEAN_MOTION_DDOT>0</MEAN_MOTION_DDOT></tleParameters></data></segment></body></omm>
<omm id="CCSDS_OMM_VERS" version="2.0">
<header><CREATION_DATE/><ORIGINATOR/></header><body><segment><metadata><OBJECT_NAME>GLOBALSTAR M073</OBJECT_NAME><OBJECT_ID>2010-054F</OBJECT_ID><CENTER_NAME>EARTH</CENTER_NAME><REF_FRAME>TEME</REF_FRAME><TIME_SYSTEM>UTC</TIME_SYSTEM><MEAN_ELEMENT_THEORY>SGP4</MEAN_ELEMENT_THEORY></metadata><data><meanElements><EPOCH>2024-08-23T12:43:43.305312</EPOCH><MEAN_MOTION>12.62268621</MEAN_MOTION><ECCENTRICITY>.0000495</ECCENTRICITY><INCLINATION>52.0053</INCLINATION><RA_OF_ASC_NODE>281.4330</RA_OF_ASC_NODE><ARG_OF_PERICENTER>103.1025</ARG_OF_PERICENTER><MEAN_ANOMALY>44.7669</MEAN_ANOMALY></meanElements><tleParameters><EPHEMERIS_TYPE>0</EPHEMERIS_TYPE><CLASSIFICATION_TYPE>U</CLASSIFICATION_TYPE><NORAD_CAT_ID>37193</NORAD_CAT_ID><ELEMENT_SET_NO>999</ELEMENT_SET_NO><REV_AT_EPOCH>64029</REV_AT_EPOCH><BSTAR>.1647E-3</BSTAR><MEAN_MOTION_DOT>-.74E-6</MEAN_MOTION_DOT><MEAN_MOTION_DDOT>0</MEAN_MOTION_DDOT></tleParameters></data></segment></body></omm>
<omm id="CCSDS_OMM_VERS" version="2.0">
<header><CREATION_DATE/><ORIGINATOR/></header><body><segment><metadata><OBJECT_NAME>GLOBALSTAR M083</OBJECT_NAME><OBJECT_ID>2011-033A</OBJECT_ID><CENTER_NAME>EARTH</CENTER_NAME><REF_FRAME>TEME</REF_FRAME><TIME_SYSTEM>UTC</TIME_SYSTEM><MEAN_ELEMENT_THEORY>SGP4</MEAN_ELEMENT_THEORY></metadata><data><meanElements><EPOCH>2024-08-23T09:14:10.219200</EPOCH><MEAN_MOTION>12.62263523</MEAN_MOTION><ECCENTRICITY>.0000145</ECCENTRICITY><INCLINATION>51.9843</INCLINATION><RA_OF_ASC_NODE>231.0105</RA_OF_ASC_NODE><ARG_OF_PERICENTER>20.9274</ARG_OF_PERICENTER><MEAN_ANOMALY>126.6310</MEAN_ANOMALY></meanElements><tleParameters><EPHEMERIS_TYPE>0</EPHEMERIS_TYPE><CLASSIFICATION_TYPE>U</CLASSIFICATION_TYPE><NORAD_CAT_ID>37739</NORAD_CAT_ID><ELEMENT_SET_NO>999</ELEMENT_SET_NO><REV_AT_EPOCH>60960</REV_AT_EPOCH><BSTAR>-.28194E-6</BSTAR><MEAN_MOTION_DOT>-.104E-5</MEAN_MOTION_DOT><MEAN_MOTION_DDOT>0</MEAN_MOTION_DDOT></tleParameters></data></segment></body></omm>
<omm id="CCSDS_OMM_VERS" version="2.0">
<header><CREATION_DATE/><ORIGINATOR/></header><body><segment><metadata><OBJECT_NAME>GLOBALSTAR M088</OBJECT_NAME><OBJECT_ID>2011-033B</OBJECT_ID><CENTER_NAME>EARTH</CENTER_NAME><REF_FRAME>TEME</REF_FRAME><TIME_SYSTEM>UTC</TIME_SYSTEM><MEAN_ELEMENT_THEORY>SGP4</MEAN_ELEMENT_THEORY></metadata><data><meanElements><EPOCH>2024-08-23T10:37:39.344736</EPOCH><MEAN_MOTION>12.62266497</MEAN_MOTION><ECCENTRICITY>.0000587</ECCENTRICITY><INCLINATION>51.9728</INCLINATION><RA_OF_ASC_NODE>136.5744</RA_OF_ASC_NODE><ARG_OF_PERICENTER>38.6722</ARG_OF_PERICENTER><MEAN_ANOMALY>133.0628</MEAN_ANOMALY></meanElements><tleParameters><EPHEMERIS_TYPE>0</EPHEMERIS_TYPE><CLASSIFICATION_TYPE>U</CLASSIFICATION_TYPE><NORAD_CAT_ID>37740</NORAD_CAT_ID><ELEMENT_SET_NO>999</ELEMENT_SET_NO><REV_AT_EPOCH>60508</REV_AT_EPOCH><BSTAR>.20859E-3</BSTAR><MEAN_MOTION_DOT>-.66E-6</MEAN_MOTION_DOT><MEAN_MOTION_DDOT>0</MEAN_MOTION_DDOT></tleParameters></data></segment></body></omm>
<omm id="CCSDS_OMM_VERS" version="2.0">
<header><CREATION_DATE/><ORIGINATOR/></header><body><segment><metadata><OBJECT_NAME>GLOBALSTAR M091</OBJECT_NAME><OBJECT_ID>2011-033C</OBJECT_ID><CENTER_NAME>EARTH</CENTER_NAME><REF_FRAME>TEME</REF_FRAME><TIME_SYSTEM>UTC</TIME_SYSTEM><MEAN_ELEMENT_THEORY>SGP4</MEAN_ELEMENT_THEORY></metadata><data><meanElements><EPOCH>2024-08-23T01:19:09.477120</EPOCH><MEAN_MOTION>12.62266112</MEAN_MOTION><ECCENTRICITY>.0000587</ECCENTRICITY><INCLINATION>51.9993</INCLINATION><RA_OF_ASC_NODE>100.7805</RA_OF_ASC_NODE><ARG_OF_PERICENTER>42.0236</ARG_OF_PERICENTER><MEAN_ANOMALY>104.6304</MEAN_ANOMALY></meanElements><tleParameters><EPHEMERIS_TYPE>0</EPHEMERIS_TYPE><CLASSIFICATION_TYPE>U</CLASSIFICATION_TYPE><NORAD_CAT_ID>37741</NORAD_CAT_ID><ELEMENT_SET_NO>999</ELEMENT_SET_NO><REV_AT_EPOCH>60579</REV_AT_EPOCH><BSTAR>.16402E-3</BSTAR><MEAN_MOTION_DOT>-.74E-6</MEAN_MOTION_DOT><MEAN_MOTION_DDOT>0</MEAN_MOTION_DDOT></tleParameters></data></segment></body></omm>
<omm id="CCSDS_OMM_VERS" version="2.0">
<header><CREATION_DATE/><ORIGINATOR/></header><body><segment><metadata><OBJECT_NAME>GLOBALSTAR M085</OBJECT_NAME><OBJECT_ID>2011-033D</OBJECT_ID><CENTER_NAME>EARTH</CENTER_NAME><REF_FRAME>TEME</REF_FRAME><TIME_SYSTEM>UTC</TIME_SYSTEM><MEAN_ELEMENT_THEORY>SGP4</MEAN_ELEMENT_THEORY></metadata><data><meanElements><EPOCH>2024-08-22T18:35:20.647392</EPOCH><MEAN_MOTION>12.62264726</MEAN_MOTION><ECCENTRICITY>.0000636</ECCENTRICITY><INCLINATION>51.9872</INCLINATION><RA_OF_ASC_NODE>52.9334</RA_OF_ASC_NODE><ARG_OF_PERICENTER>69.3162</ARG_OF_PERICENTER><MEAN_ANOMALY>303.8002</MEAN_ANOMALY></meanElements><tleParameters><EPHEMERIS_TYPE>0</EPHEMERIS_TYPE><CLASSIFICATION_TYPE>U</CLASSIFICATION_TYPE><NORAD_CAT_ID>37742</NORAD_CAT_ID><ELEMENT_SET_NO>999</ELEMENT_SET_NO><REV_AT_EPOCH>60601</REV_AT_EPOCH><BSTAR>.25287E-4</BSTAR><MEAN_MOTION_DOT>-.99E-6</MEAN_MOTION_DOT><MEAN_MOTION_DDOT>0</MEAN_MOTION_DDOT></tleParameters></data></segment></body></omm>
<omm id="CCSDS_OMM_VERS" version="2.0">
<header><CREATION_DATE/><ORIGINATOR/></header><body><segment><metadata><OBJECT_NAME>GLOBALSTAR M081</OBJECT_NAME><OBJECT_ID>2011-033E</OBJECT_ID><CENTER_NAME>EARTH</CENTER_NAME><REF_FRAME>TEME</REF_FRAME><TIME_SYSTEM>UTC</TIME_SYSTEM><MEAN_ELEMENT_THEORY>SGP4</MEAN_ELEMENT_THEORY></metadata><data><meanElements><EPOCH>2024-08-22T21:50:07.973664</EPOCH><MEAN_MOTION>12.62268371</MEAN_MOTION><ECCENTRICITY>.0000859</ECCENTRICITY><INCLINATION>51.9964</INCLINATION><RA_OF_ASC_NODE>55.1250</RA_OF_ASC_NODE><ARG_OF_PERICENTER>59.7964</ARG_OF_PERICENTER><MEAN_ANOMALY>87.9881</MEAN_ANOMALY></meanElements><tleParameters><EPHEMERIS_TYPE>0</EPHEMERIS_TYPE><CLASSIFICATION_TYPE>U</CLASSIFICATION_TYPE><NORAD_CAT_ID>37743</NORAD_CAT_ID><ELEMENT_SET_NO>999</ELEMENT_SET_NO><REV_AT_EPOCH>60617</REV_AT_EPOCH><BSTAR>.65339E-4</BSTAR><MEAN_MOTION_DOT>-.92E-6</MEAN_MOTION_DOT><MEAN_MOTION_DDOT>0</MEAN_MOTION_DDOT></tleParameters></data></segment></body></omm>
<omm id="CCSDS_OMM_VERS" version="2.0">
<header><CREATION_DATE/><ORIGINATOR/></header><body><segment><metadata><OBJECT_NAME>GLOBALSTAR M089</OBJECT_NAME><OBJECT_ID>2011-033F</OBJECT_ID><CENTER_NAME>EARTH</CENTER_NAME><REF_FRAME>TEME</REF_FRAME><TIME_SYSTEM>UTC</TIME_SYSTEM><MEAN_ELEMENT_THEORY>SGP4</MEAN_ELEMENT_THEORY></metadata><data><meanElements><EPOCH>2024-08-22T16:51:49.595904</EPOCH><MEAN_MOTION>12.62267280</MEAN_MOTION><ECCENTRICITY>.0001097</ECCENTRICITY><INCLINATION>51.9952</INCLINATION><RA_OF_ASC_NODE>10.0424</RA_OF_ASC_NODE><ARG_OF_PERICENTER>93.2898</ARG_OF_PERICENTER><MEAN_ANOMALY>11.1169</MEAN_ANOMALY></meanElements><tleParameters><EPHEMERIS_TYPE>0</EPHEMERIS_TYPE><CLASSIFICATION_TYPE>U</CLASSIFICATION_TYPE><NORAD_CAT_ID>37744</NORAD_CAT_ID><ELEMENT_SET_NO>999</ELEMENT_SET_NO><REV_AT_EPOCH>60699</REV_AT_EPOCH><BSTAR>.60786E-4</BSTAR><MEAN_MOTION_DOT>-.93E-6</MEAN_MOTION_DOT><MEAN_MOTION_DDOT>0</MEAN_MOTION_DDOT></tleParameters></data></segment></body></omm>

</ndm>
