GLOBALSTAR M075         
1 37192U 10054E   24235.62964191 -.00000081  00000+0  12590-3 0  9995
2 37192  51.9972  10.5797 0000700  93.9974 279.4133 12.62263190638675
GLOBALSTAR M073         
1 37193U 10054F   24236.53036233 -.00000074  00000+0  16470-3 0  9997
2 37193  52.0053 281.4330 0000495 103.1025  44.7669 12.62268621640294
GLOBALSTAR M083         
1 37739U 11033A   24236.38484050 -.00000104  00000+0 -28194-6 0  9992
2 37739  51.9843 231.0105 0000145  20.9274 126.6310 12.62263523609609
GLOBALSTAR M088         
1 37740U 11033B   24236.44281649 -.00000066  00000+0  20859-3 0  9993
2 37740  51.9728 136.5744 0000587  38.6722 133.0628 12.62266497605080
GLOBALSTAR M091         
1 37741U 11033C   24236.05497080 -.00000074  00000+0  16402-3 0  9997
2 37741  51.9993 100.7805 0000587  42.0236 104.6304 12.62266112605792
GLOBALSTAR M085         
1 37742U 11033D   24235.77454453 -.00000099  00000+0  25287-4 0  9992
2 37742  51.9872  52.9334 0000636  69.3162 303.8002 12.62264726606012
GLOBALSTAR M081         
1 37743U 11033E   24235.90981451 -.00000092  00000+0  65339-4 0  9996
2 37743  51.9964  55.1250 0000859  59.7964  87.9881 12.62268371606179
GLOBALSTAR M089         
1 37744U 11033F   24235.70265736 -.00000093  00000+0  60786-4 0  9998
2 37744  51.9952  10.0424 0001097  93.2898  11.1169 12.62267280606990
